start=new Date('2023-01-10T00:00:00.000Z').valueOf();
sats=[{"OBJECT_TYPE":"PAYLOAD","INCLINATION":"53.0533","ELEMENT_SET_NO":"999","MEAN_MOTION_DOT":"0.00001391","MEAN_MOTION":"15.06401312","MEAN_ELEMENT_THEORY":"SGP4","ARG_OF_PERICENTER":"37.5290","NORAD_CAT_ID":"47798","SEMIMAJOR_AXIS":"6925.345","EPHEMERIS_TYPE":"0","EPOCH":"2023-01-09T16:51:36.418176","SITE":"AFETR","DECAY_DATE":null,"REV_AT_EPOCH":"10244","LAUNCH_DATE":"2021-03-11","TLE_LINE1":"1 47798U 21018M   23009.70250484  .00001391  00000-0  11229-3 0  9993","PERIOD":"95.592","CLASSIFICATION_TYPE":"U","APOAPSIS":"548.935","REF_FRAME":"TEME","MEAN_ANOMALY":"322.5873","ECCENTRICITY":"0.00024920","TIME_SYSTEM":"UTC","FILE":"3737585","MEAN_MOTION_DDOT":"0.0000000000000","CENTER_NAME":"EARTH","TLE_LINE2":"2 47798  53.0533  16.5612 0002492  37.5290 322.5873 15.06401312102444","RCS_SIZE":"LARGE","PERIAPSIS":"545.484","COUNTRY_CODE":"US","OBJECT_NAME":"STARLINK-2379","RA_OF_ASC_NODE":"16.5612","OBJECT_ID":"2021-018M","BSTAR":"0.00011229000000","GP_ID":"222581095"},{"CLASSIFICATION_TYPE":"U","PERIOD":"95.592","TLE_LINE1":"1 47799U 21018N   23009.43342954  .00003301  00000-0  24036-3 0  9991","REV_AT_EPOCH":"10240","DECAY_DATE":null,"LAUNCH_DATE":"2021-03-11","EPOCH":"2023-01-09T10:24:08.312256","SEMIMAJOR_AXIS":"6925.335","EPHEMERIS_TYPE":"0","SITE":"AFETR","NORAD_CAT_ID":"47799","MEAN_ELEMENT_THEORY":"SGP4","ARG_OF_PERICENTER":"42.1988","MEAN_MOTION_DOT":"0.00003301","MEAN_MOTION":"15.06404474","ELEMENT_SET_NO":"999","INCLINATION":"53.0544","OBJECT_TYPE":"PAYLOAD","GP_ID":"222575474","BSTAR":"0.00024036000000","OBJECT_ID":"2021-018N","OBJECT_NAME":"STARLINK-2380","COUNTRY_CODE":"US","RA_OF_ASC_NODE":"17.7585","PERIAPSIS":"545.556","TLE_LINE2":"2 47799  53.0544  17.7585 0002373  42.1988 317.9183 15.06404474102403","RCS_SIZE":"LARGE","MEAN_MOTION_DDOT":"0.0000000000000","CENTER_NAME":"EARTH","FILE":"3737327","TIME_SYSTEM":"UTC","ECCENTRICITY":"0.00023730","APOAPSIS":"548.843","REF_FRAME":"TEME","MEAN_ANOMALY":"317.9183"},{"TIME_SYSTEM":"UTC","ECCENTRICITY":"0.00030980","CENTER_NAME":"EARTH","MEAN_MOTION_DDOT":"0.0000000000000","FILE":"3737585","MEAN_ANOMALY":"329.2353","REF_FRAME":"TEME","APOAPSIS":"549.354","OBJECT_ID":"2021-018P","GP_ID":"222581439","BSTAR":"0.00013711000000","RA_OF_ASC_NODE":"16.4819","COUNTRY_CODE":"US","OBJECT_NAME":"STARLINK-2381","PERIAPSIS":"545.064","TLE_LINE2":"2 47800  53.0566  16.4819 0003098  30.8817 329.2353 15.06401496102457","RCS_SIZE":"LARGE","MEAN_MOTION":"15.06401496","MEAN_MOTION_DOT":"0.00001761","ELEMENT_SET_NO":"999","ARG_OF_PERICENTER":"30.8817","MEAN_ELEMENT_THEORY":"SGP4","OBJECT_TYPE":"PAYLOAD","INCLINATION":"53.0566","TLE_LINE1":"1 47800U 21018P   23009.72093692  .00001761  00000-0  13711-3 0  9994","CLASSIFICATION_TYPE":"U","PERIOD":"95.592","NORAD_CAT_ID":"47800","LAUNCH_DATE":"2021-03-11","DECAY_DATE":null,"REV_AT_EPOCH":"10245","SITE":"AFETR","EPOCH":"2023-01-09T17:18:08.949888","SEMIMAJOR_AXIS":"6925.344","EPHEMERIS_TYPE":"0"},{"MEAN_ANOMALY":"299.3237","REF_FRAME":"TEME","APOAPSIS":"549.047","FILE":"3737296","CENTER_NAME":"EARTH","MEAN_MOTION_DDOT":"0.0000000000000","TIME_SYSTEM":"UTC","ECCENTRICITY":"0.00026600","PERIAPSIS":"545.363","TLE_LINE2":"2 47801  53.0518  23.4999 0002660  60.8017 299.3237 15.06402839102316","RCS_SIZE":"LARGE","COUNTRY_CODE":"US","RA_OF_ASC_NODE":"23.4999","OBJECT_NAME":"STARLINK-2382","BSTAR":"0.00016941000000","GP_ID":"222574627","OBJECT_ID":"2021-018Q","INCLINATION":"53.0518","OBJECT_TYPE":"PAYLOAD","ARG_OF_PERICENTER":"60.8017","MEAN_ELEMENT_THEORY":"SGP4","ELEMENT_SET_NO":"999","MEAN_MOTION_DOT":"0.00002243","MEAN_MOTION":"15.06402839","SITE":"AFETR","EPOCH":"2023-01-09T06:59:09.905568","SEMIMAJOR_AXIS":"6925.340","EPHEMERIS_TYPE":"0","LAUNCH_DATE":"2021-03-11","DECAY_DATE":null,"REV_AT_EPOCH":"10231","NORAD_CAT_ID":"47801","PERIOD":"95.592","CLASSIFICATION_TYPE":"U","TLE_LINE1":"1 47801U 21018Q   23009.29108687  .00002243  00000-0  16941-3 0  9992"},{"MEAN_MOTION":"15.06411296","MEAN_MOTION_DOT":"0.00007901","ELEMENT_SET_NO":"999","MEAN_ELEMENT_THEORY":"SGP4","ARG_OF_PERICENTER":"41.6186","OBJECT_TYPE":"PAYLOAD","INCLINATION":"53.0546","TLE_LINE1":"1 47802U 21018R   23009.20444742  .00007901  00000-0  54854-3 0  9990","CLASSIFICATION_TYPE":"U","PERIOD":"95.591","NORAD_CAT_ID":"47802","DECAY_DATE":null,"LAUNCH_DATE":"2021-03-11","REV_AT_EPOCH":"10237","EPOCH":"2023-01-09T04:54:24.257088","SEMIMAJOR_AXIS":"6925.314","EPHEMERIS_TYPE":"0","SITE":"AFETR","ECCENTRICITY":"0.00023150","TIME_SYSTEM":"UTC","MEAN_MOTION_DDOT":"0.0000000000000","CENTER_NAME":"EARTH","FILE":"3737263","REF_FRAME":"TEME","APOAPSIS":"548.782","MEAN_ANOMALY":"318.4979","OBJECT_ID":"2021-018R","GP_ID":"222542255","BSTAR":"0.00054854000000","COUNTRY_CODE":"US","RA_OF_ASC_NODE":"43.8009","OBJECT_NAME":"STARLINK-2383","TLE_LINE2":"2 47802  53.0546  43.8009 0002315  41.6186 318.4979 15.06411296102376","RCS_SIZE":"LARGE","PERIAPSIS":"545.576"},{"MEAN_ELEMENT_THEORY":"SGP4","ARG_OF_PERICENTER":"46.7319","MEAN_MOTION_DOT":"0.00004362","MEAN_MOTION":"15.06403222","ELEMENT_SET_NO":"999","INCLINATION":"53.0539","OBJECT_TYPE":"PAYLOAD","CLASSIFICATION_TYPE":"U","PERIOD":"95.592","TLE_LINE1":"1 47803U 21018S   23009.73199411  .00004362  00000-0  31150-3 0  9991","REV_AT_EPOCH":"10245","DECAY_DATE":null,"LAUNCH_DATE":"2021-03-11","EPHEMERIS_TYPE":"0","SEMIMAJOR_AXIS":"6925.339","EPOCH":"2023-01-09T17:34:04.291104","SITE":"AFETR","NORAD_CAT_ID":"47803","MEAN_MOTION_DDOT":"0.0000000000000","CENTER_NAME":"EARTH","FILE":"3737325","ECCENTRICITY":"0.00019760","TIME_SYSTEM":"UTC","APOAPSIS":"548.572","REF_FRAME":"TEME","MEAN_ANOMALY":"313.3835","GP_ID":"222575459","BSTAR":"0.00031150000000","OBJECT_ID":"2021-018S","COUNTRY_CODE":"US","OBJECT_NAME":"STARLINK-2384","RA_OF_ASC_NODE":"16.4363","TLE_LINE2":"2 47803  53.0539  16.4363 0001976  46.7319 313.3835 15.06403222102458","PERIAPSIS":"545.835","RCS_SIZE":"LARGE"},{"SITE":"AFETR","SEMIMAJOR_AXIS":"6925.329","EPOCH":"2023-01-09T06:46:32.636352","EPHEMERIS_TYPE":"0","DECAY_DATE":null,"LAUNCH_DATE":"2021-03-11","REV_AT_EPOCH":"10272","NORAD_CAT_ID":"47804","PERIOD":"95.592","CLASSIFICATION_TYPE":"U","TLE_LINE1":"1 47804U 21018T   23009.28232218  .00004916  00000-0  34863-3 0  9994","INCLINATION":"53.0533","OBJECT_TYPE":"PAYLOAD","ARG_OF_PERICENTER":"58.3106","MEAN_ELEMENT_THEORY":"SGP4","ELEMENT_SET_NO":"999","MEAN_MOTION_DOT":"0.00004916","MEAN_MOTION":"15.06406496","TLE_LINE2":"2 47804  53.0533  18.4491 0002781  58.3106 301.8153 15.06406496102726","RCS_SIZE":"LARGE","PERIAPSIS":"545.268","COUNTRY_CODE":"US","RA_OF_ASC_NODE":"18.4491","OBJECT_NAME":"STARLINK-2385","BSTAR":"0.00034863000000","GP_ID":"222542756","OBJECT_ID":"2021-018T","MEAN_ANOMALY":"301.8153","APOAPSIS":"549.120","REF_FRAME":"TEME","FILE":"3737263","CENTER_NAME":"EARTH","MEAN_MOTION_DDOT":"0.0000000000000","TIME_SYSTEM":"UTC","ECCENTRICITY":"0.00027810"},{"INCLINATION":"53.0527","OBJECT_TYPE":"PAYLOAD","MEAN_ELEMENT_THEORY":"SGP4","ARG_OF_PERICENTER":"35.3349","MEAN_MOTION":"15.06394562","MEAN_MOTION_DOT":"0.00001626","ELEMENT_SET_NO":"999","DECAY_DATE":null,"LAUNCH_DATE":"2021-03-11","REV_AT_EPOCH":"10273","SEMIMAJOR_AXIS":"6925.365","EPOCH":"2023-01-09T07:34:21.655488","EPHEMERIS_TYPE":"0","SITE":"AFETR","NORAD_CAT_ID":"47805","CLASSIFICATION_TYPE":"U","PERIOD":"95.592","TLE_LINE1":"1 47805U 21018U   23009.31552842  .00001626  00000-0  12809-3 0  9998","REF_FRAME":"TEME","APOAPSIS":"548.581","MEAN_ANOMALY":"324.7769","MEAN_MOTION_DDOT":"0.0000000000000","CENTER_NAME":"EARTH","FILE":"3737263","TIME_SYSTEM":"UTC","ECCENTRICITY":"0.00019500","COUNTRY_CODE":"US","RA_OF_ASC_NODE":"18.5460","OBJECT_NAME":"STARLINK-2386","TLE_LINE2":"2 47805  53.0527  18.5460 0001950  35.3349 324.7769 15.06394562102736","PERIAPSIS":"545.880","RCS_SIZE":"LARGE","GP_ID":"222543507","BSTAR":"0.00012809000000","OBJECT_ID":"2021-018U"},{"GP_ID":"222541755","BSTAR":"0.00019206000000","OBJECT_ID":"2021-018V","OBJECT_NAME":"STARLINK-2387","COUNTRY_CODE":"US","RA_OF_ASC_NODE":"32.7030","TLE_LINE2":"2 47806  53.0556  32.7030 0002716  32.6456 327.4700 15.06404149102604","RCS_SIZE":"LARGE","PERIAPSIS":"545.320","CENTER_NAME":"EARTH","MEAN_MOTION_DDOT":"0.0000000000000","FILE":"3737263","ECCENTRICITY":"0.00027160","TIME_SYSTEM":"UTC","MEAN_ANOMALY":"327.4700","APOAPSIS":"549.082","REF_FRAME":"TEME","CLASSIFICATION_TYPE":"U","PERIOD":"95.592","TLE_LINE1":"1 47806U 21018V   23009.45232815  .00002580  00000-0  19206-3 0  9997","DECAY_DATE":null,"LAUNCH_DATE":"2021-03-11","REV_AT_EPOCH":"10260","SITE":"AFETR","EPHEMERIS_TYPE":"0","SEMIMAJOR_AXIS":"6925.336","EPOCH":"2023-01-09T10:51:21.152160","NORAD_CAT_ID":"47806","ARG_OF_PERICENTER":"32.6456","MEAN_ELEMENT_THEORY":"SGP4","MEAN_MOTION_DOT":"0.00002580","MEAN_MOTION":"15.06404149","ELEMENT_SET_NO":"999","INCLINATION":"53.0556","OBJECT_TYPE":"PAYLOAD"},{"INCLINATION":"53.0532","OBJECT_TYPE":"PAYLOAD","MEAN_ELEMENT_THEORY":"SGP4","ARG_OF_PERICENTER":"55.6953","MEAN_MOTION":"15.06402271","MEAN_MOTION_DOT":"0.00003980","ELEMENT_SET_NO":"999","DECAY_DATE":null,"REV_AT_EPOCH":"10258","LAUNCH_DATE":"2021-03-11","EPOCH":"2023-01-09T16:58:15.858336","SEMIMAJOR_AXIS":"6925.342","EPHEMERIS_TYPE":"0","SITE":"AFETR","NORAD_CAT_ID":"47807","CLASSIFICATION_TYPE":"U","PERIOD":"95.592","TLE_LINE1":"1 47807U 21018W   23009.70712799  .00003980  00000-0  28594-3 0  9995","REF_FRAME":"TEME","APOAPSIS":"548.905","MEAN_ANOMALY":"304.4268","MEAN_MOTION_DDOT":"0.0000000000000","CENTER_NAME":"EARTH","FILE":"3737587","ECCENTRICITY":"0.00024530","TIME_SYSTEM":"UTC","OBJECT_NAME":"STARLINK-2388","COUNTRY_CODE":"US","RA_OF_ASC_NODE":"6.5458","TLE_LINE2":"2 47807  53.0532   6.5458 0002453  55.6953 304.4268 15.06402271102582","PERIAPSIS":"545.508","RCS_SIZE":"LARGE","GP_ID":"222581473","BSTAR":"0.00028594000000","OBJECT_ID":"2021-018W"}];
